{"type": "FeatureCollection", "features": [ {"type": "Feature", "properties": {"norad_id": 66950, "name": "STARLINK-36111", "group": "last-30-days", "lat": -14.917108670248277, "lon": -33.38182905484933, "alt_km": 414.017369121505, "timestamp": "2025-12-27T06:41:29.621167+00:00", "meta": {"OBJECT_NAME": "STARLINK-36111", "OBJECT_ID": "2025-286AB", "EPOCH": "2025-12-26T22:00:01.999584", "MEAN_MOTION": 15.53504276, "ECCENTRICITY": 0.00013909, "INCLINATION": 53.1597, "RA_OF_ASC_NODE": 339.88, "ARG_OF_PERICENTER": 79.9657, "MEAN_ANOMALY": 36.0416, "EPHEMERIS_TYPE": 0, "CLASSIFICATION_TYPE": "U", "NORAD_CAT_ID": 66950, "ELEMENT_SET_NO": 999, "REV_AT_EPOCH": 426, "BSTAR": -0.034948395, "MEAN_MOTION_DOT": -0.02018076, "MEAN_MOTION_DDOT": 0}, "tle": {"line1": "1 66950U 25286AB  25360.91668981 -.02018076  00000+0 -34948-1 0  9997", "line2": "2 66950  53.1597 339.8800 0001390  79.9657  36.0416 15.53504276  4265"}}, "geometry": {"type": "Point", "coordinates": [-33.38182905484933, -14.917108670248277]}}, {"type": "Feature", "properties": {"norad_id": 66951, "name": "STARLINK-35999", "group": "last-30-days", "lat": -13.40909626729675, "lon": -32.161105208902555, "alt_km": 414.01131150379933, "timestamp": "2025-12-27T06:41:29.621179+00:00", "meta": {"OBJECT_NAME": "STARLINK-35999", "OBJECT_ID": "2025-286AC", "EPOCH": "2025-12-26T22:00:01.999584", "MEAN_MOTION": 15.53505937, "ECCENTRICITY": 0.00012231, "INCLINATION": 53.1599, "RA_OF_ASC_NODE": 339.8758, "ARG_OF_PERICENTER": 95.4339, "MEAN_ANOMALY": 22.4911, "EPHEMERIS_TYPE": 0, "CLASSIFICATION_TYPE": "U", "NORAD_CAT_ID": 66951, "ELEMENT_SET_NO": 999, "REV_AT_EPOCH": 426, "BSTAR": -0.03501707, "MEAN_MOTION_DOT": -0.02021629, "MEAN_MOTION_DDOT": 0}, "tle": {"line1": "1 66951U 25286AC  25360.91668981 -.02021629  00000+0 -35017-1 0  9994", "line2": "2 66951  53.1599 339.8758 0001223  95.4339  22.4911 15.53505937  4269"}}, "geometry": {"type": "Point", "coordinates": [-32.161105208902555, -13.40909626729675]}}, {"type": "Feature", "properties": {"norad_id": 66952, "name": "STARLINK-36122", "group": "last-30-days", "lat": -16.413574586298495, "lon": -34.615546381891036, "alt_km": 414.30217950411225, "timestamp": "2025-12-27T06:41:29.621191+00:00", "meta": {"OBJECT_NAME": "STARLINK-36122", "OBJECT_ID": "2025-286AD", "EPOCH": "2025-12-26T22:00:01.999584", "MEAN_MOTION": 15.53505893, "ECCENTRICITY": 0.00012772, "INCLINATION": 53.1602, "RA_OF_ASC_NODE": 339.884, "ARG_OF_PERICENTER": 89.4863, "MEAN_ANOMALY": 24.605, "EPHEMERIS_TYPE": 0, "CLASSIFICATION_TYPE": "U", "NORAD_CAT_ID": 66952, "ELEMENT_SET_NO": 999, "REV_AT_EPOCH": 426, "BSTAR": -0.035010194, "MEAN_MOTION_DOT": -0.02021303, "MEAN_MOTION_DDOT": 0}, "tle": {"line1": "1 66952U 25286AD  25360.91668981 -.02021303  00000+0 -35010-1 0  9997", "line2": "2 66952  53.1602 339.8840 0001277  89.4863  24.6050 15.53505893  4260"}}, "geometry": {"type": "Point", "coordinates": [-34.615546381891036, -16.413574586298495]}}, {"type": "Feature", "properties": {"norad_id": 66953, "name": "HULIANWANG DIGUI-114", "group": "last-30-days", "lat": 62.27905150770224, "lon": -12.432639732907367, "alt_km": 1008.9127420796895, "timestamp": "2025-12-27T06:41:29.621202+00:00", "meta": {"OBJECT_NAME": "HULIANWANG DIGUI-114", "OBJECT_ID": "2025-287A", "EPOCH": "2025-12-20T09:09:14.655168", "MEAN_MOTION": 13.66161866, "ECCENTRICITY": 0.00096738, "INCLINATION": 86.496, "RA_OF_ASC_NODE": 343.3747, "ARG_OF_PERICENTER": 185.0352, "MEAN_ANOMALY": 175.071, "EPHEMERIS_TYPE": 0, "CLASSIFICATION_TYPE": "U", "NORAD_CAT_ID": 66953, "ELEMENT_SET_NO": 999, "REV_AT_EPOCH": 157, "BSTAR": 3.033618e-06, "MEAN_MOTION_DOT": 1.9e-07, "MEAN_MOTION_DDOT": 0}, "tle": {"line1": "1 66953U 25287A   25354.38141962  .00000019  00000+0  30336-5 0  9995", "line2": "2 66953  86.4960 343.3747 0009673 185.0352 175.0710 13.66161866  1572"}}, "geometry": {"type": "Point", "coordinates": [-12.432639732907367, 62.27905150770224]}}, {"type": "Feature", "properties": {"norad_id": 66954, "name": "HULIANWANG DIGUI-115", "group": "last-30-days", "lat": 30.996022450641835, "lon": -17.006758150700097, "alt_km": 1020.3933336422442, "timestamp": "2025-12-27T06:41:29.621212+00:00", "meta": {"OBJECT_NAME": "HULIANWANG DIGUI-115", "OBJECT_ID": "2025-287B", "EPOCH": "2025-12-24T22:10:56.489088", "MEAN_MOTION": 13.63539042, "ECCENTRICITY": 0.0003385, "INCLINATION": 86.5036, "RA_OF_ASC_NODE": 341.7372, "ARG_OF_PERICENTER": 109.9724, "MEAN_ANOMALY": 250.1798, "EPHEMERIS_TYPE": 0, "CLASSIFICATION_TYPE": "U", "NORAD_CAT_ID": 66954, "ELEMENT_SET_NO": 999, "REV_AT_EPOCH": 219, "BSTAR": 8.442119e-06, "MEAN_MOTION_DOT": 2.3e-07, "MEAN_MOTION_DDOT": 0}, "tle": {"line1": "1 66954U 25287B   25358.92426492  .00000023  00000+0  84421-5 0  9993", "line2": "2 66954  86.5036 341.7372 0003385 109.9724 250.1798 13.63539042  2198"}}, "geometry": {"type": "Point", "coordinates": [-17.006758150700097, 30.996022450641835]}}, {"type": "Feature", "properties": {"norad_id": 66955, "name": "HULIANWANG DIGUI-116", "group": "last-30-days", "lat": 48.907841546747974, "lon": -15.108058020460442, "alt_km": 1015.1677609595345, "timestamp": "2025-12-27T06:41:29.621222+00:00", "meta": {"OBJECT_NAME": "HULIANWANG DIGUI-116", "OBJECT_ID": "2025-287C", "EPOCH": "2025-12-24T23:52:55.515936", "MEAN_MOTION": 13.64194122, "ECCENTRICITY": 0.00016332, "INCLINATION": 86.4919, "RA_OF_ASC_NODE": 341.6856, "ARG_OF_PERICENTER": 94.3011, "MEAN_ANOMALY": 265.8333, "EPHEMERIS_TYPE": 0, "CLASSIFICATION_TYPE": "U", "NORAD_CAT_ID": 66955, "ELEMENT_SET_NO": 999, "REV_AT_EPOCH": 220, "BSTAR": 0.0001652864, "MEAN_MOTION_DOT": 1.48e-06, "MEAN_MOTION_DDOT": 0}, "tle": {"line1": "1 66955U 25287C   25358.99508699  .00000148  00000+0  16529-3 0  9991", "line2": "2 66955  86.4919 341.6856 0001633  94.3011 265.8333 13.64194122  2201"}}, "geometry": {"type": "Point", "coordinates": [-15.108058020460442, 48.907841546747974]}}, {"type": "Feature", "properties": {"norad_id": 66956, "name": "HULIANWANG DIGUI-117", "group": "last-30-days", "lat": 65.86888370681584, "lon": -11.270697072509133, "alt_km": 1011.7512593871952, "timestamp": "2025-12-27T06:41:29.621237+00:00", "meta": {"OBJECT_NAME": "HULIANWANG DIGUI-117", "OBJECT_ID": "2025-287D", "EPOCH": "2025-12-24T22:03:29.281824", "MEAN_MOTION": 13.64670553, "ECCENTRICITY": 0.00010447, "INCLINATION": 86.4976, "RA_OF_ASC_NODE": 341.7257, "ARG_OF_PERICENTER": 103.5815, "MEAN_ANOMALY": 256.5458, "EPHEMERIS_TYPE": 0, "CLASSIFICATION_TYPE": "U", "NORAD_CAT_ID": 66956, "ELEMENT_SET_NO": 999, "REV_AT_EPOCH": 219, "BSTAR": 9.025962e-06, "MEAN_MOTION_DOT": 2.4e-07, "MEAN_MOTION_DDOT": 0}, "tle": {"line1": "1 66956U 25287D   25358.91908891  .00000024  00000+0  90260-5 0  9991", "line2": "2 66956  86.4976 341.7257 0001044 103.5815 256.5458 13.64670553  2192"}}, "geometry": {"type": "Point", "coordinates": [-11.270697072509133, 65.86888370681584]}}, {"type": "Feature", "properties": {"norad_id": 66957, "name": "HULIANWANG DIGUI-118", "group": "last-30-days", "lat": 58.80388492730749, "lon": 155.04859490661642, "alt_km": 999.4580118991353, "timestamp": "2025-12-27T06:41:29.621248+00:00", "meta": {"OBJECT_NAME": "HULIANWANG DIGUI-118", "OBJECT_ID": "2025-287E", "EPOCH": "2025-12-21T00:50:13.849728", "MEAN_MOTION": 13.6751011, "ECCENTRICITY": 0.00054729, "INCLINATION": 86.4946, "RA_OF_ASC_NODE": 343.1304, "ARG_OF_PERICENTER": 170.9065, "MEAN_ANOMALY": 189.2194, "EPHEMERIS_TYPE": 0, "CLASSIFICATION_TYPE": "U", "NORAD_CAT_ID": 66957, "ELEMENT_SET_NO": 999, "REV_AT_EPOCH": 166, "BSTAR": 0.00013223305, "MEAN_MOTION_DOT": 1.28e-06, "MEAN_MOTION_DDOT": 0}, "tle": {"line1": "1 66957U 25287E   25355.03488252  .00000128  00000+0  13223-3 0  9993", "line2": "2 66957  86.4946 343.1304 0005472 170.9065 189.2194 13.67510110  1668"}}, "geometry": {"type": "Point", "coordinates": [155.04859490661642, 58.80388492730749]}}, {"type": "Feature", "properties": {"norad_id": 66958, "name": "CZ-6A R/B", "group": "last-30-days", "lat": 72.39503678529863, "lon": -8.32741198808464, "alt_km": 828.8833264656187, "timestamp": "2025-12-27T06:41:29.621258+00:00", "meta": {"OBJECT_NAME": "CZ-6A R/B", "OBJECT_ID": "2025-287F", "EPOCH": "2025-12-26T23:27:51.481152", "MEAN_MOTION": 13.94921923, "ECCENTRICITY": 0.01070558, "INCLINATION": 86.5066, "RA_OF_ASC_NODE": 340.6879, "ARG_OF_PERICENTER": 59.3506, "MEAN_ANOMALY": 301.8169, "EPHEMERIS_TYPE": 0, "CLASSIFICATION_TYPE": "U", "NORAD_CAT_ID": 66958, "ELEMENT_SET_NO": 999, "REV_AT_EPOCH": 252, "BSTAR": 7.5983134e-05, "MEAN_MOTION_DOT": 1.26e-06, "MEAN_MOTION_DDOT": 0}, "tle": {"line1": "1 66958U 25287F   25360.97767918  .00000126  00000+0  75983-4 0  9992", "line2": "2 66958  86.5066 340.6879 0107055  59.3506 301.8169 13.94921923  2520"}}, "geometry": {"type": "Point", "coordinates": [-8.32741198808464, 72.39503678529863]}}, {"type": "Feature", "properties": {"norad_id": 66959, "name": "STARLINK-35887", "group": "last-30-days", "lat": -4.039908181803769, "lon": -96.82043854973668, "alt_km": 397.7705151777691, "timestamp": "2025-12-27T06:41:29.621268+00:00", "meta": {"OBJECT_NAME": "STARLINK-35887", "OBJECT_ID": "2025-288A", "EPOCH": "2025-12-26T22:00:01.999584", "MEAN_MOTION": 15.58339105, "ECCENTRICITY": 0.00015922, "INCLINATION": 43.0003, "RA_OF_ASC_NODE": 80.9736, "ARG_OF_PERICENTER": 277.8926, "MEAN_ANOMALY": 35.0804, "EPHEMERIS_TYPE": 0, "CLASSIFICATION_TYPE": "U", "NORAD_CAT_ID": 66959, "ELEMENT_SET_NO": 999, "REV_AT_EPOCH": 410, "BSTAR": -0.030191596, "MEAN_MOTION_DOT": -0.02097055, "MEAN_MOTION_DDOT": 0}, "tle": {"line1": "1 66959U 25288A   25360.91668981 -.02097055  00000+0 -30192-1 0  9999", "line2": "2 66959  43.0003  80.9736 0001592 277.8926  35.0804 15.58339105  4103"}}, "geometry": {"type": "Point", "coordinates": [-96.82043854973668, -4.039908181803769]}}]}